STARLINK-36973          
1 68078U 26042K   26079.87856732  .00412020  00000+0  19780-2 0  9998
2 68078  53.1578 138.6158 0001760  80.3670 279.7552 15.81037827  3855
STARLINK-37063          
1 68079U 26042L   26079.87931773  .00416989  00000+0  20010-2 0  9994
2 68079  53.1576 138.6208 0001645  66.5671 293.5525 15.81034642  3855
STARLINK-37051          
1 68080U 26042M   26079.87706910  .00371773  00000+0  17958-2 0  9997
2 68080  53.1576 138.6055 0001828  73.5475 286.5748 15.81011343  3852
STARLINK-37066          
1 68081U 26042N   26079.62502972 -.00610839  00000+0 -34155-2 0  9992
2 68081  53.1582 139.8790 0000953 109.9073 250.2053 15.80231891  3819
STARLINK-37054          
1 68082U 26042P   26079.87632033  .00378977  00000+0  18286-2 0  9991
2 68082  53.1578 138.6007 0002256  67.7424 292.3838 15.81015634  3850
STARLINK-37065          
1 68083U 26042Q   26079.83335648 -.00152558  00000+0 -10068-2 0  9997
2 68083  53.1586 138.8768 0001303  93.9336 351.4287 15.75288918  3845
STARLINK-37037          
1 68084U 26042R   26079.87481800  .00427481  00000+0  20484-2 0  9995
2 68084  53.1577 138.5901 0002029  68.9410 291.1829 15.81038442  3858
STARLINK-37068          
1 68085U 26042S   26079.87407124  .00382015  00000+0  18426-2 0  9999
2 68085  53.1577 138.5853 0002355  75.4537 284.6747 15.81014647  3857
STARLINK-37067          
1 68086U 26042T   26079.87332407  .00477715  00000+0  22760-2 0  9999
2 68086  53.1576 138.5809 0002997  64.4439 295.6893 15.81031238  3858
STARLINK-37062          
1 68087U 26042U   26079.83335648 -.00149266  00000+0 -76370-3 0  9992
2 68087  53.1578 138.7719 0001082  72.4044  64.4270 15.80932955  3843
STARLINK-37059          
1 68088U 26042V   26079.83335648 -.00122256  00000+0 -62331-3 0  9995
2 68088  53.1576 138.7633 0001284  70.0840  71.0266 15.80918682  3849
STARLINK-37004          
1 68089U 26042W   26079.83335648 -.00187149  00000+0 -96223-3 0  9995
2 68089  53.1577 138.7545 0001180  93.1475  52.2321 15.80941025  3848
